{
  "norad_id": 49159,
  "name": "STARLINK-3056",
  "history": [
    {
      "epoch": "2026-03-28T20:22:36.484896Z",
      "apogee_km": 574.1804464433117,
      "perigee_km": 569.9145621982489,
      "latitude_deg": 5.0020730483345774e-05,
      "longitude_deg": 114.2284163055166,
      "height_km": 574.5303939571403,
      "semi_major_axis_km": 6950.1845043207795,
      "eccentricity": 0.00030689,
      "inclination_deg": 69.9989,
      "raan_deg": 246.144,
      "arg_perigee_deg": 268.5106,
      "mean_anomaly_deg": 91.5702,
      "mean_motion_rev_day": 14.98332712
    }
  ]
}